[{"OBJECT_NAME":"STARLINK-2503","OBJECT_ID":"2021-027BM","EPOCH":"2026-03-10T00:00:02.999808","MEAN_MOTION":15.12045111,"ECCENTRICITY":0.00018339,"INCLINATION":53.0753,"RA_OF_ASC_NODE":150.1568,"ARG_OF_PERICENTER":101.727,"MEAN_ANOMALY":130.0944,"EPHEMERIS_TYPE":0,"CLASSIFICATION_TYPE":"U","NORAD_CAT_ID":48151,"ELEMENT_SET_NO":999,"REV_AT_EPOCH":569,"BSTAR":0.0047324617,"MEAN_MOTION_DOT":0.00082958,"MEAN_MOTION_DDOT":0},{"OBJECT_NAME":"FENGYUN 1C DEB","OBJECT_ID":"1999-025AXR","EPOCH":"2026-03-07T20:57:39.857472","MEAN_MOTION":14.72454359,"ECCENTRICITY":0.01891694,"INCLINATION":99.3486,"RA_OF_ASC_NODE":300.9473,"ARG_OF_PERICENTER":18.7054,"MEAN_ANOMALY":342.0979,"EPHEMERIS_TYPE":0,"CLASSIFICATION_TYPE":"U","NORAD_CAT_ID":30879,"ELEMENT_SET_NO":999,"REV_AT_EPOCH":63190,"BSTAR":0.0050043655,"MEAN_MOTION_DOT":0.00042311,"MEAN_MOTION_DDOT":0}]
